IRIDIUM 138             
1 43071U 17083B   26157.71165787  .00000190  00000+0  60865-4 0  9995
2 43071  86.3973 326.0903 0002394  88.9627 271.1843 14.34217252442630
IRIDIUM 116             
1 43072U 17083C   26157.54040586  .00000231  00000+0  75552-4 0  9991
2 43072  86.3960 326.4554 0001945  95.6088 264.5329 14.34219353442640
IRIDIUM 130             
1 43073U 17083D   26157.71799938  .00000228  00000+0  74514-4 0  9996
2 43073  86.3967 326.6543 0001847  86.8386 273.3021 14.34215357442616
IRIDIUM 151             
1 43074U 17083E   26157.76239741  .00000157  00000+0  48824-4 0  9999
2 43074  86.3959 326.4188 0002112  91.9678 268.1759 14.34217881442645
IRIDIUM 134             
1 43075U 17083F   26157.73068478  .00000080  00000+0  21608-4 0  9990
2 43075  86.3962 326.4400 0002089  87.9386 272.2049 14.34218248442603
IRIDIUM 137             
1 43076U 17083G   26157.74336914  .00000097  00000+0  27559-4 0  9994
2 43076  86.3961 326.5269 0001955 100.8834 259.2582 14.34217552442672
IRIDIUM 141             
1 43077U 17083H   26157.73702764 -.00000033  00000+0 -18684-4 0  9995
2 43077  86.3953 326.3611 0002085  90.4396 269.7039 14.34217144442675
IRIDIUM 153             
1 43078U 17083J   26157.61943832  .00000040  00000+0  73060-5 0  9992
2 43078  86.3954 294.8902 0002363  90.3685 269.7782 14.34217703443765
IRIDIUM 131             
1 43079U 17083K   26157.72434170 -.00000032  00000+0 -18510-4 0  9996
2 43079  86.3958 326.5516 0002085  91.8661 268.2774 14.34217500442607
IRIDIUM 144             
1 43249U 18030A   26157.13739986  .00000122  00000+0  36490-4 0  9991
2 43249  86.3951 295.0216 0002033  96.9096 263.2331 14.34217715428557
IRIDIUM 149             
1 43250U 18030B   26157.63212331  .00000049  00000+0  10305-4 0  9993
2 43250  86.3951 294.7816 0002260  93.0580 267.0875 14.34217709428647
IRIDIUM 157             
1 43251U 18030C   26157.65115078  .00000013  00000+0 -22880-5 0  9990
2 43251  86.3948 294.8265 0002079  93.5333 266.6100 14.34217485428627
IRIDIUM 140             
1 43252U 18030D   26157.67017853  .00000040  00000+0  73069-5 0  9999
2 43252  86.3952 294.8310 0002159  92.1207 268.0236 14.34217673428689
IRIDIUM 145             
1 43253U 18030E   26157.65749198  .00000083  00000+0  22598-4 0  9999
2 43253  86.3950 294.8087 0001839  96.0785 264.0620 14.34217578428617
IRIDIUM 146             
1 43254U 18030F   26156.87101164  .00000005  00000+0 -52880-5 0  9991
2 43254  86.3947 295.1500 0001953  94.3523 265.7895 14.34217426428519
IRIDIUM 148             
1 43255U 18030G   26157.67652024 -.00000001  00000+0 -74178-5 0  9998
2 43255  86.3949 294.8561 0002057  97.0436 263.0994 14.34217525428661
IRIDIUM 142             
1 43256U 18030H   26157.64480766  .00000046  00000+0  92716-5 0  9993
2 43256  86.3948 294.7584 0002025  95.5960 264.5467 14.34217625428623
IRIDIUM 150             
1 43257U 18030J   26157.61309542  .00000039  00000+0  69792-5 0  9993
2 43257  86.3954 294.8879 0002152  91.6488 268.4954 14.34217621428644
IRIDIUM 143             
1 43258U 18030K   26157.66383573  .00000021  00000+0  49433-6 0  9997
2 43258  86.3952 294.9588 0001974  94.0347 266.1075 14.34217508428589
IRIDIUM 161             
1 43478U 18047C   26157.56137485  .00000354  00000+0  99146-4 0  9990
2 43478  86.4485  92.9125 0002580  91.0419 269.1078 14.43276640423605
IRIDIUM 152             
1 43479U 18047D   26157.56678597  .00000047  00000+0  98434-5 0  9994
2 43479  86.3954  92.7724 0002373  84.4621 275.6845 14.34217770420969
IRIDIUM 147             
1 43480U 18047E   26157.57312778 -.00000005  00000+0 -88437-5 0  9991
2 43480  86.3956  92.7746 0002040  84.5366 275.6062 14.34216852420966
IRIDIUM 110             
1 43481U 18047F   26157.09109174  .00000042  00000+0  80706-5 0  9993
2 43481  86.3957  93.0677 0002582  87.6962 272.4530 14.34217780420889
IRIDIUM 162             
1 43482U 18047G   26157.55507527  .00000371  00000+0  10432-3 0  9991
2 43482  86.4477  92.8075 0002365  83.6612 276.4858 14.43275713423592
IRIDIUM 160             
1 43569U 18061A   26157.45553790  .00000066  00000+0  16568-4 0  9993
2 43569  86.3968  61.2839 0002263  87.4955 272.6500 14.34217967411832
IRIDIUM 166             
1 43570U 18061B   26157.48090807  .00000015  00000+0 -18660-5 0  9994
2 43570  86.3964  61.2238 0001973  83.6041 276.5379 14.34217604411862
IRIDIUM 158             
1 43571U 18061C   26157.44919494  .00000108  00000+0  31565-4 0  9993
2 43571  86.3966  61.2472 0002302  84.1758 275.9700 14.34217033411826
IRIDIUM 165             
1 43572U 18061D   26157.47455931  .00000260  00000+0  85655-4 0  9996
2 43572  86.3972  61.2833 0002210  83.5981 276.5466 14.34214558411852
IRIDIUM 155             
1 43573U 18061E   26157.15743632  .00000041  00000+0  75486-5 0  9999
2 43573  86.3963  61.2846 0002196  81.4494 278.6951 14.34217711411773
IRIDIUM 154             
1 43574U 18061F   26157.48725060  .00000084  00000+0  22998-4 0  9997
2 43574  86.3968  61.2803 0002041  86.5536 273.5894 14.34217679411878
IRIDIUM 163             
1 43575U 18061G   26157.46821650  .00000079  00000+0  21101-4 0  9997
2 43575  86.3961  61.2041 0002377  83.1428 277.0038 14.34220440411847
